HST                     
1 20580U 90037B   26068.15977042  .00009063  00000+0  30023-3 0  9999
2 20580  28.4717  43.6133 0001837 120.9992 239.0785 15.29473555773239
STARLINK-35586          
1 66159U 25240P   26068.29093848  .00027681  00000+0  94324-3 0  9993
2 66159  53.1591  64.9288 0001200  82.9425 277.1712 15.30199855 21920
