[{"OBJECT_NAME":"HST","OBJECT_ID":"1990-037B","EPOCH":"2026-03-09T03:50:04.164288","MEAN_MOTION":15.29473555,"ECCENTRICITY":0.00018372,"INCLINATION":28.4717,"RA_OF_ASC_NODE":43.6133,"ARG_OF_PERICENTER":120.9992,"MEAN_ANOMALY":239.0785,"EPHEMERIS_TYPE":0,"CLASSIFICATION_TYPE":"U","NORAD_CAT_ID":20580,"ELEMENT_SET_NO":999,"REV_AT_EPOCH":77323,"BSTAR":0.0003002261,"MEAN_MOTION_DOT":9.063e-5,"MEAN_MOTION_DDOT":0},{"OBJECT_NAME":"STARLINK-35586","OBJECT_ID":"2025-240P","EPOCH":"2026-03-09T06:58:57.084672","MEAN_MOTION":15.30199855,"ECCENTRICITY":0.00012006,"INCLINATION":53.1591,"RA_OF_ASC_NODE":64.9288,"ARG_OF_PERICENTER":82.9425,"MEAN_ANOMALY":277.1712,"EPHEMERIS_TYPE":0,"CLASSIFICATION_TYPE":"U","NORAD_CAT_ID":66159,"ELEMENT_SET_NO":999,"REV_AT_EPOCH":2192,"BSTAR":0.00094324194,"MEAN_MOTION_DOT":0.00027681,"MEAN_MOTION_DDOT":0}]
